{
  "type": "FeatureCollection",
  "features": [
    {
      "type": "Feature",
      "properties": {
        "norad_id": 36390,
        "name": "IRIDIUM 33 DEB",
        "group": "iridium-33-debris",
        "lat": -25.582660477215562,
        "lon": -68.74026336397647,
        "alt_km": 672.485831983201,
        "timestamp": "2025-12-26T14:28:48.088797+00:00",
        "meta_object_name": "IRIDIUM 33 DEB",
        "meta_object_id": "1997-051VU",
        "meta_epoch": "2025-12-25T02:44:48.274368",
        "meta_mean_motion": 14.737665,
        "meta_eccentricity": 0.00323952,
        "meta_inclination": 86.292,
        "meta_ra_of_asc_node": 293.7212,
        "meta_arg_of_pericenter": 120.9212,
        "meta_mean_anomaly": 239.5197,
        "meta_ephemeris_type": 0,
        "meta_classification_type": "U",
        "meta_norad_cat_id": 36390,
        "meta_element_set_no": 999,
        "meta_rev_at_epoch": 66444,
        "meta_bstar": 0.0011373598,
        "meta_mean_motion_dot": 7.522e-05,
        "meta_mean_motion_ddot": 0,
        "tle_line1": "1 36390U 97051VU  25359.11444762  .00007522  00000+0  11374-2 0  9999",
        "tle_line2": "2 36390  86.2920 293.7212 0032395 120.9212 239.5197 14.73766500664444"
      },
      "geometry": {
        "type": "Point",
        "coordinates": [
          -68.74026336397647,
          -25.582660477215562
        ]
      }
    },
    {
      "type": "Feature",
      "properties": {
        "norad_id": 36483,
        "name": "IRIDIUM 33 DEB",
        "group": "iridium-33-debris",
        "lat": 10.919514417559494,
        "lon": 47.254244105579446,
        "alt_km": 738.7854512151052,
        "timestamp": "2025-12-26T14:28:48.088808+00:00",
        "meta_object_name": "IRIDIUM 33 DEB",
        "meta_object_id": "1997-051VZ",
        "meta_epoch": "2025-12-24T20:54:18.257760",
        "meta_mean_motion": 14.45850229,
        "meta_eccentricity": 0.0011373,
        "meta_inclination": 86.3782,
        "meta_ra_of_asc_node": 47.2957,
        "meta_arg_of_pericenter": 92.8078,
        "meta_mean_anomaly": 267.4426,
        "meta_ephemeris_type": 0,
        "meta_classification_type": "U",
        "meta_norad_cat_id": 36483,
        "meta_element_set_no": 999,
        "meta_rev_at_epoch": 65321,
        "meta_bstar": 0.0005014,
        "meta_mean_motion_dot": 1.8e-05,
        "meta_mean_motion_ddot": 0,
        "tle_line1": "1 36483U 97051VZ  25358.87104465  .00001800  00000+0  50140-3 0  9995",
        "tle_line2": "2 36483  86.3782  47.2957 0011373  92.8078 267.4426 14.45850229653211"
      },
      "geometry": {
        "type": "Point",
        "coordinates": [
          47.254244105579446,
          10.919514417559494
        ]
      }
    },
    {
      "type": "Feature",
      "properties": {
        "norad_id": 36490,
        "name": "IRIDIUM 33 DEB",
        "group": "iridium-33-debris",
        "lat": -12.098637864977121,
        "lon": 3.4276586414516204,
        "alt_km": 643.31646875365,
        "timestamp": "2025-12-26T14:28:48.088818+00:00",
        "meta_object_name": "IRIDIUM 33 DEB",
        "meta_object_id": "1997-051WG",
        "meta_epoch": "2025-12-23T18:13:03.957312",
        "meta_mean_motion": 14.76410999,
        "meta_eccentricity": 0.00050592,
        "meta_inclination": 86.3652,
        "meta_ra_of_asc_node": 5.4915,
        "meta_arg_of_pericenter": 59.5237,
        "meta_mean_anomaly": 300.6482,
        "meta_ephemeris_type": 0,
        "meta_classification_type": "U",
        "meta_norad_cat_id": 36490,
        "meta_element_set_no": 999,
        "meta_rev_at_epoch": 86647,
        "meta_bstar": 0.0016428856,
        "meta_mean_motion_dot": 0.00011451,
        "meta_mean_motion_ddot": 0,
        "tle_line1": "1 36490U 97051WG  25357.75907358  .00011451  00000+0  16429-2 0  9995",
        "tle_line2": "2 36490  86.3652   5.4915 0005059  59.5237 300.6482 14.76410999866472"
      },
      "geometry": {
        "type": "Point",
        "coordinates": [
          3.4276586414516204,
          -12.098637864977121
        ]
      }
    },
    {
      "type": "Feature",
      "properties": {
        "norad_id": 36493,
        "name": "IRIDIUM 33 DEB",
        "group": "iridium-33-debris",
        "lat": 81.0921896335335,
        "lon": 29.504299482283617,
        "alt_km": 672.2070710141261,
        "timestamp": "2025-12-26T14:28:48.088829+00:00",
        "meta_object_name": "IRIDIUM 33 DEB",
        "meta_object_id": "1997-051WK",
        "meta_epoch": "2025-12-23T07:26:33.103968",
        "meta_mean_motion": 14.65359392,
        "meta_eccentricity": 0.00090124,
        "meta_inclination": 86.3569,
        "meta_ra_of_asc_node": 6.9826,
        "meta_arg_of_pericenter": 326.7527,
        "meta_mean_anomaly": 33.3119,
        "meta_ephemeris_type": 0,
        "meta_classification_type": "U",
        "meta_norad_cat_id": 36493,
        "meta_element_set_no": 999,
        "meta_rev_at_epoch": 74673,
        "meta_bstar": 0.0013164613,
        "meta_mean_motion_dot": 7.136e-05,
        "meta_mean_motion_ddot": 0,
        "tle_line1": "1 36493U 97051WK  25357.31010537  .00007136  00000+0  13165-2 0  9993",
        "tle_line2": "2 36493  86.3569   6.9826 0009012 326.7527  33.3119 14.65359392746733"
      },
      "geometry": {
        "type": "Point",
        "coordinates": [
          29.504299482283617,
          81.0921896335335
        ]
      }
    },
    {
      "type": "Feature",
      "properties": {
        "norad_id": 37548,
        "name": "IRIDIUM 33 DEB",
        "group": "iridium-33-debris",
        "lat": -66.94391555801853,
        "lon": 28.717362897323923,
        "alt_km": 744.3929378663961,
        "timestamp": "2025-12-26T14:28:48.088839+00:00",
        "meta_object_name": "IRIDIUM 33 DEB",
        "meta_object_id": "1997-051XH",
        "meta_epoch": "2025-12-15T20:39:30.861504",
        "meta_mean_motion": 14.51326297,
        "meta_eccentricity": 0.00258157,
        "meta_inclination": 86.3522,
        "meta_ra_of_asc_node": 42.0105,
        "meta_arg_of_pericenter": 178.4192,
        "meta_mean_anomaly": 181.71,
        "meta_ephemeris_type": 0,
        "meta_classification_type": "U",
        "meta_norad_cat_id": 37548,
        "meta_element_set_no": 999,
        "meta_rev_at_epoch": 65577,
        "meta_bstar": 0.00067405053,
        "meta_mean_motion_dot": 2.715e-05,
        "meta_mean_motion_ddot": 0,
        "tle_line1": "1 37548U 97051XH  25349.86077386  .00002715  00000+0  67405-3 0  9996",
        "tle_line2": "2 37548  86.3522  42.0105 0025815 178.4192 181.7100 14.51326297655778"
      },
      "geometry": {
        "type": "Point",
        "coordinates": [
          28.717362897323923,
          -66.94391555801853
        ]
      }
    },
    {
      "type": "Feature",
      "properties": {
        "norad_id": 37550,
        "name": "IRIDIUM 33 DEB",
        "group": "iridium-33-debris",
        "lat": 43.33760676572034,
        "lon": 21.15620468349654,
        "alt_km": 662.7657063253837,
        "timestamp": "2025-12-26T14:28:48.088849+00:00",
        "meta_object_name": "IRIDIUM 33 DEB",
        "meta_object_id": "1997-051XK",
        "meta_epoch": "2025-12-26T07:44:10.741056",
        "meta_mean_motion": 14.67388956,
        "meta_eccentricity": 0.00055067,
        "meta_inclination": 86.3774,
        "meta_ra_of_asc_node": 17.8536,
        "meta_arg_of_pericenter": 80.7353,
        "meta_mean_anomaly": 279.4484,
        "meta_ephemeris_type": 0,
        "meta_classification_type": "U",
        "meta_norad_cat_id": 37550,
        "meta_element_set_no": 999,
        "meta_rev_at_epoch": 86532,
        "meta_bstar": 0.0013029909,
        "meta_mean_motion_dot": 7.388e-05,
        "meta_mean_motion_ddot": 0,
        "tle_line1": "1 37550U 97051XK  25360.32234654  .00007388  00000+0  13030-2 0  9991",
        "tle_line2": "2 37550  86.3774  17.8536 0005506  80.7353 279.4484 14.67388956865328"
      },
      "geometry": {
        "type": "Point",
        "coordinates": [
          21.15620468349654,
          43.33760676572034
        ]
      }
    },
    {
      "type": "Feature",
      "properties": {
        "norad_id": 37562,
        "name": "IRIDIUM 33 DEB",
        "group": "iridium-33-debris",
        "lat": 75.31822663596596,
        "lon": 51.56351841387604,
        "alt_km": 678.9334757071692,
        "timestamp": "2025-12-26T14:28:48.088860+00:00",
        "meta_object_name": "IRIDIUM 33 DEB",
        "meta_object_id": "1997-051XX",
        "meta_epoch": "2025-12-25T20:34:30.178272",
        "meta_mean_motion": 14.56586789,
        "meta_eccentricity": 0.00262364,
        "meta_inclination": 86.3732,
        "meta_ra_of_asc_node": 37.8796,
        "meta_arg_of_pericenter": 66.6095,
        "meta_mean_anomaly": 59.6121,
        "meta_ephemeris_type": 0,
        "meta_classification_type": "U",
        "meta_norad_cat_id": 37562,
        "meta_element_set_no": 999,
        "meta_rev_at_epoch": 86519,
        "meta_bstar": 0.0010427091,
        "meta_mean_motion_dot": 4.687e-05,
        "meta_mean_motion_ddot": 0,
        "tle_line1": "1 37562U 97051XX  25359.85729373  .00004687  00000+0  10427-2 0  9993",
        "tle_line2": "2 37562  86.3732  37.8796 0026236  66.6095  59.6121 14.56586789865197"
      },
      "geometry": {
        "type": "Point",
        "coordinates": [
          51.56351841387604,
          75.31822663596596
        ]
      }
    }
  ]
}